{"type": "FeatureCollection", "features": [ {"type": "Feature", "properties": {"norad_id": 34303, "name": "COSMOS 2251 DEB", "group": "cosmos-2251-debris", "lat": -37.08538761034643, "lon": -99.152271982363, "alt_km": 713.0930614445242, "timestamp": "2025-12-20T11:30:28.770003+00:00", "meta": {"OBJECT_NAME": "COSMOS 2251 DEB", "OBJECT_ID": "1993-036MZ", "EPOCH": "2025-12-20T01:50:44.812320", "MEAN_MOTION": 14.54542488, "ECCENTRICITY": 0.0135383, "INCLINATION": 74.006, "RA_OF_ASC_NODE": 274.1321, "ARG_OF_PERICENTER": 50.6331, "MEAN_ANOMALY": 324.9047, "EPHEMERIS_TYPE": 0, "CLASSIFICATION_TYPE": "U", "NORAD_CAT_ID": 34303, "ELEMENT_SET_NO": 999, "REV_AT_EPOCH": 88069, "BSTAR": 0.00096661, "MEAN_MOTION_DOT": 4.632e-05, "MEAN_MOTION_DDOT": 0}, "tle": {"line1": "1 34303U 93036MZ  25354.07690755  .00004632  00000+0  96661-3 0  9997", "line2": "2 34303  74.0060 274.1321 0135383  50.6331 324.9047 14.54542488880698"}}, "geometry": {"type": "Point", "coordinates": [-99.152271982363, -37.08538761034643]}}, {"type": "Feature", "properties": {"norad_id": 34304, "name": "COSMOS 2251 DEB", "group": "cosmos-2251-debris", "lat": -25.568203674392663, "lon": 100.43536435308272, "alt_km": 767.7084545736307, "timestamp": "2025-12-20T11:30:28.770013+00:00", "meta": {"OBJECT_NAME": "COSMOS 2251 DEB", "OBJECT_ID": "1993-036NA", "EPOCH": "2025-12-19T10:56:28.553856", "MEAN_MOTION": 14.37919229, "ECCENTRICITY": 0.0129018, "INCLINATION": 74.0136, "RA_OF_ASC_NODE": 110.2061, "ARG_OF_PERICENTER": 246.6357, "MEAN_ANOMALY": 188.69, "EPHEMERIS_TYPE": 0, "CLASSIFICATION_TYPE": "U", "NORAD_CAT_ID": 34304, "ELEMENT_SET_NO": 999, "REV_AT_EPOCH": 87393, "BSTAR": 0.0010637, "MEAN_MOTION_DOT": 3.51e-05, "MEAN_MOTION_DDOT": 0}, "tle": {"line1": "1 34304U 93036NA  25353.45588604  .00003510  00000+0  10637-2 0  9990", "line2": "2 34304  74.0136 110.2061 0129018 246.6357 188.6900 14.37919229873931"}}, "geometry": {"type": "Point", "coordinates": [100.43536435308272, -25.568203674392663]}}, {"type": "Feature", "properties": {"norad_id": 34307, "name": "COSMOS 2251 DEB", "group": "cosmos-2251-debris", "lat": 6.3232136915563455, "lon": -57.48882959053424, "alt_km": 1209.6453841278708, "timestamp": "2025-12-20T11:30:28.770023+00:00", "meta": {"OBJECT_NAME": "COSMOS 2251 DEB", "OBJECT_ID": "1993-036ND", "EPOCH": "2025-12-20T02:41:56.366016", "MEAN_MOTION": 13.54331363, "ECCENTRICITY": 0.0391886, "INCLINATION": 74.0535, "RA_OF_ASC_NODE": 301.2844, "ARG_OF_PERICENTER": 130.6068, "MEAN_ANOMALY": 251.0175, "EPHEMERIS_TYPE": 0, "CLASSIFICATION_TYPE": "U", "NORAD_CAT_ID": 34307, "ELEMENT_SET_NO": 999, "REV_AT_EPOCH": 82962, "BSTAR": 0.00052793, "MEAN_MOTION_DOT": 5.69e-06, "MEAN_MOTION_DDOT": 0}, "tle": {"line1": "1 34307U 93036ND  25354.11245794  .00000569  00000+0  52793-3 0  9998", "line2": "2 34307  74.0535 301.2844 0391886 130.6068 251.0175 13.54331363829624"}}, "geometry": {"type": "Point", "coordinates": [-57.48882959053424, 6.3232136915563455]}}, {"type": "Feature", "properties": {"norad_id": 34313, "name": "COSMOS 2251 DEB", "group": "cosmos-2251-debris", "lat": 72.68136321084958, "lon": -3.5761443408191482, "alt_km": 489.700482982169, "timestamp": "2025-12-20T11:30:28.770033+00:00", "meta": {"OBJECT_NAME": "COSMOS 2251 DEB", "OBJECT_ID": "1993-036NK", "EPOCH": "2025-12-19T05:08:07.172160", "MEAN_MOTION": 15.20167674, "ECCENTRICITY": 0.001176, "INCLINATION": 73.9716, "RA_OF_ASC_NODE": 291.8749, "ARG_OF_PERICENTER": 71.0703, "MEAN_ANOMALY": 289.1768, "EPHEMERIS_TYPE": 0, "CLASSIFICATION_TYPE": "U", "NORAD_CAT_ID": 34313, "ELEMENT_SET_NO": 999, "REV_AT_EPOCH": 89163, "BSTAR": 0.0029328, "MEAN_MOTION_DOT": 0.0006414, "MEAN_MOTION_DDOT": 0}, "tle": {"line1": "1 34313U 93036NK  25353.21397190  .00064140  00000+0  29328-2 0  9995", "line2": "2 34313  73.9716 291.8749 0011760  71.0703 289.1768 15.20167674891639"}}, "geometry": {"type": "Point", "coordinates": [-3.5761443408191482, 72.68136321084958]}}, {"type": "Feature", "properties": {"norad_id": 34314, "name": "COSMOS 2251 DEB", "group": "cosmos-2251-debris", "lat": 40.45647154914147, "lon": 100.41372824488622, "alt_km": 841.425923857887, "timestamp": "2025-12-20T11:30:28.770043+00:00", "meta": {"OBJECT_NAME": "COSMOS 2251 DEB", "OBJECT_ID": "1993-036NL", "EPOCH": "2025-12-20T02:28:19.714944", "MEAN_MOTION": 14.17439955, "ECCENTRICITY": 0.0103213, "INCLINATION": 74.0059, "RA_OF_ASC_NODE": 295.2428, "ARG_OF_PERICENTER": 39.1761, "MEAN_ANOMALY": 336.7104, "EPHEMERIS_TYPE": 0, "CLASSIFICATION_TYPE": "U", "NORAD_CAT_ID": 34314, "ELEMENT_SET_NO": 999, "REV_AT_EPOCH": 86762, "BSTAR": 0.00052245, "MEAN_MOTION_DOT": 1.091e-05, "MEAN_MOTION_DDOT": 0}, "tle": {"line1": "1 34314U 93036NL  25354.10300596  .00001091  00000+0  52245-3 0  9990", "line2": "2 34314  74.0059 295.2428 0103213  39.1761 336.7104 14.17439955867622"}}, "geometry": {"type": "Point", "coordinates": [100.41372824488622, 40.45647154914147]}}, {"type": "Feature", "properties": {"norad_id": 34316, "name": "COSMOS 2251 DEB", "group": "cosmos-2251-debris", "lat": -58.098191383344975, "lon": 168.70410447680422, "alt_km": 604.114985449306, "timestamp": "2025-12-20T11:30:28.770053+00:00", "meta": {"OBJECT_NAME": "COSMOS 2251 DEB", "OBJECT_ID": "1993-036NN", "EPOCH": "2025-12-19T08:40:46.609248", "MEAN_MOTION": 14.9202131, "ECCENTRICITY": 0.0008817, "INCLINATION": 74.0649, "RA_OF_ASC_NODE": 323.6212, "ARG_OF_PERICENTER": 45.1623, "MEAN_ANOMALY": 315.0275, "EPHEMERIS_TYPE": 0, "CLASSIFICATION_TYPE": "U", "NORAD_CAT_ID": 34316, "ELEMENT_SET_NO": 999, "REV_AT_EPOCH": 89308, "BSTAR": 0.0011029, "MEAN_MOTION_DOT": 0.00011177, "MEAN_MOTION_DDOT": 0}, "tle": {"line1": "1 34316U 93036NN  25353.36165057  .00011177  00000+0  11029-2 0  9990", "line2": "2 34316  74.0649 323.6212 0008817  45.1623 315.0275 14.92021310893087"}}, "geometry": {"type": "Point", "coordinates": [168.70410447680422, -58.098191383344975]}}, {"type": "Feature", "properties": {"norad_id": 34317, "name": "COSMOS 2251 DEB", "group": "cosmos-2251-debris", "lat": 56.5704250489, "lon": 48.91784629875344, "alt_km": 844.9937519761061, "timestamp": "2025-12-20T11:30:28.770063+00:00", "meta": {"OBJECT_NAME": "COSMOS 2251 DEB", "OBJECT_ID": "1993-036NP", "EPOCH": "2025-12-19T13:07:41.530080", "MEAN_MOTION": 13.65128939, "ECCENTRICITY": 0.0336758, "INCLINATION": 73.9243, "RA_OF_ASC_NODE": 24.5515, "ARG_OF_PERICENTER": 12.4946, "MEAN_ANOMALY": 143.9754, "EPHEMERIS_TYPE": 0, "CLASSIFICATION_TYPE": "U", "NORAD_CAT_ID": 34317, "ELEMENT_SET_NO": 999, "REV_AT_EPOCH": 83712, "BSTAR": 0.00041999, "MEAN_MOTION_DOT": 4.79e-06, "MEAN_MOTION_DDOT": 0}, "tle": {"line1": "1 34317U 93036NP  25353.54700845  .00000479  00000+0  41999-3 0  9994", "line2": "2 34317  73.9243  24.5515 0336758  12.4946 143.9754 13.65128939837129"}}, "geometry": {"type": "Point", "coordinates": [48.91784629875344, 56.5704250489]}}, {"type": "Feature", "properties": {"norad_id": 34321, "name": "COSMOS 2251 DEB", "group": "cosmos-2251-debris", "lat": -51.46921435849316, "lon": 120.74003056239826, "alt_km": 722.65729233806, "timestamp": "2025-12-20T11:30:28.770074+00:00", "meta": {"OBJECT_NAME": "COSMOS 2251 DEB", "OBJECT_ID": "1993-036NT", "EPOCH": "2025-12-19T12:52:55.720128", "MEAN_MOTION": 14.50082509, "ECCENTRICITY": 0.0015949, "INCLINATION": 74.0274, "RA_OF_ASC_NODE": 143.5911, "ARG_OF_PERICENTER": 272.7207, "MEAN_ANOMALY": 153.3831, "EPHEMERIS_TYPE": 0, "CLASSIFICATION_TYPE": "U", "NORAD_CAT_ID": 34321, "ELEMENT_SET_NO": 999, "REV_AT_EPOCH": 88585, "BSTAR": 0.00040697, "MEAN_MOTION_DOT": 1.554e-05, "MEAN_MOTION_DDOT": 0}, "tle": {"line1": "1 34321U 93036NT  25353.53675602  .00001554  00000+0  40697-3 0  9999", "line2": "2 34321  74.0274 143.5911 0015949 272.7207 153.3831 14.50082509885850"}}, "geometry": {"type": "Point", "coordinates": [120.74003056239826, -51.46921435849316]}}, {"type": "Feature", "properties": {"norad_id": 34323, "name": "COSMOS 2251 DEB", "group": "cosmos-2251-debris", "lat": -69.46210501083462, "lon": 57.72557572720962, "alt_km": 680.7925813037191, "timestamp": "2025-12-20T11:30:28.770085+00:00", "meta": {"OBJECT_NAME": "COSMOS 2251 DEB", "OBJECT_ID": "1993-036NV", "EPOCH": "2025-12-19T14:45:56.336832", "MEAN_MOTION": 14.74632915, "ECCENTRICITY": 0.0058087, "INCLINATION": 73.9534, "RA_OF_ASC_NODE": 109.619, "ARG_OF_PERICENTER": 152.0617, "MEAN_ANOMALY": 224.2266, "EPHEMERIS_TYPE": 0, "CLASSIFICATION_TYPE": "U", "NORAD_CAT_ID": 34323, "ELEMENT_SET_NO": 999, "REV_AT_EPOCH": 88541, "BSTAR": 0.0015348, "MEAN_MOTION_DOT": 0.00010502, "MEAN_MOTION_DDOT": 0}, "tle": {"line1": "1 34323U 93036NV  25353.61523538  .00010502  00000+0  15348-2 0  9997", "line2": "2 34323  73.9534 109.6190 0058087 152.0617 224.2266 14.74632915885416"}}, "geometry": {"type": "Point", "coordinates": [57.72557572720962, -69.46210501083462]}}, {"type": "Feature", "properties": {"norad_id": 34325, "name": "COSMOS 2251 DEB", "group": "cosmos-2251-debris", "lat": -11.412144999790538, "lon": 175.82091622923804, "alt_km": 1005.7488954626897, "timestamp": "2025-12-20T11:30:28.770095+00:00", "meta": {"OBJECT_NAME": "COSMOS 2251 DEB", "OBJECT_ID": "1993-036NX", "EPOCH": "2025-12-19T22:37:34.966848", "MEAN_MOTION": 14.04513997, "ECCENTRICITY": 0.0191735, "INCLINATION": 73.8699, "RA_OF_ASC_NODE": 180.1152, "ARG_OF_PERICENTER": 196.0925, "MEAN_ANOMALY": 318.3128, "EPHEMERIS_TYPE": 0, "CLASSIFICATION_TYPE": "U", "NORAD_CAT_ID": 34325, "ELEMENT_SET_NO": 999, "REV_AT_EPOCH": 85616, "BSTAR": 0.0013755, "MEAN_MOTION_DOT": 2.561e-05, "MEAN_MOTION_DDOT": 0}, "tle": {"line1": "1 34325U 93036NX  25353.94276582  .00002561  00000+0  13755-2 0  9995", "line2": "2 34325  73.8699 180.1152 0191735 196.0925 318.3128 14.04513997856162"}}, "geometry": {"type": "Point", "coordinates": [175.82091622923804, -11.412144999790538]}}]}